start=new Date('2023-06-06T00:00:00.000Z').valueOf();
sats=[{"DECAY_DATE":null,"TIME_SYSTEM":"UTC","ARG_OF_PERICENTER":"129.9741","MEAN_MOTION":"15.08844130","EPOCH":"2023-06-05T19:49:26.001696","TLE_LINE2":"2 50849  53.2188  23.5909 0001473 129.9741 230.1380 15.08844130 78119","RA_OF_ASC_NODE":"23.5909","GP_ID":"233284128","ELEMENT_SET_NO":"999","CLASSIFICATION_TYPE":"U","LAUNCH_DATE":"2022-01-06","RCS_SIZE":"LARGE","CENTER_NAME":"EARTH","INCLINATION":"53.2188","MEAN_MOTION_DOT":"0.00000059","ECCENTRICITY":"0.00014730","TLE_LINE1":"1 50849U 22001AY  23156.82599539  .00000059  00000-0  21813-4 0  9991","PERIOD":"95.437","COUNTRY_CODE":"US","APOAPSIS":"540.752","SITE":"AFETR","OBJECT_NAME":"STARLINK-3311","SEMIMAJOR_AXIS":"6917.868","MEAN_MOTION_DDOT":"0.0000000000000","MEAN_ANOMALY":"230.1380","OBJECT_ID":"2022-001AY","NORAD_CAT_ID":"50849","FILE":"3925751","OBJECT_TYPE":"PAYLOAD","EPHEMERIS_TYPE":"0","REF_FRAME":"TEME","MEAN_ELEMENT_THEORY":"SGP4","BSTAR":"0.00002181300000","REV_AT_EPOCH":"7811","PERIAPSIS":"538.714"},{"OBJECT_ID":"2022-001AZ","NORAD_CAT_ID":"50850","OBJECT_NAME":"STARLINK-3312","SITE":"AFETR","MEAN_ANOMALY":"265.3384","SEMIMAJOR_AXIS":"6917.873","MEAN_MOTION_DDOT":"0.0000000000000","BSTAR":"0.00003859800000","PERIAPSIS":"538.961","REV_AT_EPOCH":"7922","EPHEMERIS_TYPE":"0","OBJECT_TYPE":"PAYLOAD","FILE":"3925751","MEAN_ELEMENT_THEORY":"SGP4","REF_FRAME":"TEME","ECCENTRICITY":"0.00011240","TLE_LINE1":"1 50850U 22001AZ  23156.89591607  .00000327  00000-0  38598-4 0  9994","APOAPSIS":"540.516","COUNTRY_CODE":"US","PERIOD":"95.437","CENTER_NAME":"EARTH","INCLINATION":"53.2175","MEAN_MOTION_DOT":"0.00000327","LAUNCH_DATE":"2022-01-06","CLASSIFICATION_TYPE":"U","RCS_SIZE":"LARGE","TLE_LINE2":"2 50850  53.2175 343.2821 0001124  94.7736 265.3384 15.08842340 79226","DECAY_DATE":null,"TIME_SYSTEM":"UTC","EPOCH":"2023-06-05T21:30:07.148448","MEAN_MOTION":"15.08842340","ARG_OF_PERICENTER":"94.7736","ELEMENT_SET_NO":"999","RA_OF_ASC_NODE":"343.2821","GP_ID":"233284878"},{"ECCENTRICITY":"0.00010820","TLE_LINE1":"1 50851U 22001BA  23156.87847613  .00000422  00000-0  44563-4 0  9999","APOAPSIS":"540.488","COUNTRY_CODE":"US","PERIOD":"95.437","OBJECT_ID":"2022-001BA","NORAD_CAT_ID":"50851","OBJECT_NAME":"STARLINK-3314","SITE":"AFETR","MEAN_ANOMALY":"266.0350","MEAN_MOTION_DDOT":"0.0000000000000","SEMIMAJOR_AXIS":"6917.875","BSTAR":"0.00004456300000","REV_AT_EPOCH":"7812","PERIAPSIS":"538.991","EPHEMERIS_TYPE":"0","FILE":"3925751","OBJECT_TYPE":"PAYLOAD","MEAN_ELEMENT_THEORY":"SGP4","REF_FRAME":"TEME","TLE_LINE2":"2 50851  53.2185  23.3722 0001082  94.0765 266.0350 15.08841800 78121","DECAY_DATE":null,"TIME_SYSTEM":"UTC","EPOCH":"2023-06-05T21:05:00.337632","MEAN_MOTION":"15.08841800","ARG_OF_PERICENTER":"94.0765","ELEMENT_SET_NO":"999","RA_OF_ASC_NODE":"23.3722","GP_ID":"233283127","INCLINATION":"53.2185","CENTER_NAME":"EARTH","MEAN_MOTION_DOT":"0.00000422","LAUNCH_DATE":"2022-01-06","CLASSIFICATION_TYPE":"U","RCS_SIZE":"LARGE"},{"BSTAR":"-0.00001862400000","PERIAPSIS":"538.839","REV_AT_EPOCH":"7669","FILE":"3925751","OBJECT_TYPE":"PAYLOAD","EPHEMERIS_TYPE":"0","REF_FRAME":"TEME","MEAN_ELEMENT_THEORY":"SGP4","OBJECT_ID":"2022-005A","NORAD_CAT_ID":"51104","SITE":"AFETR","OBJECT_NAME":"STARLINK-3366","MEAN_MOTION_DDOT":"0.0000000000000","SEMIMAJOR_AXIS":"6917.908","MEAN_ANOMALY":"274.7748","APOAPSIS":"540.708","PERIOD":"95.438","COUNTRY_CODE":"US","TLE_LINE1":"1 51104U 22005A   23156.63187991 -.00000584  00000-0 -18624-4 0  9995","ECCENTRICITY":"0.00013510","CENTER_NAME":"EARTH","INCLINATION":"53.2159","MEAN_MOTION_DOT":"-0.00000584","CLASSIFICATION_TYPE":"U","LAUNCH_DATE":"2022-01-19","RCS_SIZE":"LARGE","ELEMENT_SET_NO":"999","RA_OF_ASC_NODE":"134.4660","GP_ID":"233286396","TLE_LINE2":"2 51104  53.2159 134.4660 0001351  85.3398 274.7748 15.08830905 76694","DECAY_DATE":null,"TIME_SYSTEM":"UTC","ARG_OF_PERICENTER":"85.3398","MEAN_MOTION":"15.08830905","EPOCH":"2023-06-05T15:09:54.424224"},{"COUNTRY_CODE":"US","PERIOD":"95.437","APOAPSIS":"540.616","ECCENTRICITY":"0.00012640","TLE_LINE1":"1 51105U 22005B   23156.73859304  .00000612  00000-0  56559-4 0  9990","EPHEMERIS_TYPE":"0","OBJECT_TYPE":"PAYLOAD","FILE":"3925751","MEAN_ELEMENT_THEORY":"SGP4","REF_FRAME":"TEME","BSTAR":"0.00005655900000","REV_AT_EPOCH":"7671","PERIAPSIS":"538.867","OBJECT_NAME":"STARLINK-3350","SITE":"AFETR","MEAN_ANOMALY":"275.5034","MEAN_MOTION_DDOT":"0.0000000000000","SEMIMAJOR_AXIS":"6917.876","OBJECT_ID":"2022-005B","NORAD_CAT_ID":"51105","RA_OF_ASC_NODE":"133.9862","GP_ID":"233286147","ELEMENT_SET_NO":"999","TIME_SYSTEM":"UTC","DECAY_DATE":null,"EPOCH":"2023-06-05T17:43:34.438656","MEAN_MOTION":"15.08841386","ARG_OF_PERICENTER":"84.6102","TLE_LINE2":"2 51105  53.2162 133.9862 0001264  84.6102 275.5034 15.08841386 76710","LAUNCH_DATE":"2022-01-19","CLASSIFICATION_TYPE":"U","RCS_SIZE":"LARGE","CENTER_NAME":"EARTH","INCLINATION":"53.2162","MEAN_MOTION_DOT":"0.00000612"},{"SITE":"AFETR","OBJECT_NAME":"STARLINK-3176","SEMIMAJOR_AXIS":"6917.893","MEAN_MOTION_DDOT":"0.0000000000000","MEAN_ANOMALY":"266.5515","OBJECT_ID":"2022-005C","NORAD_CAT_ID":"51106","OBJECT_TYPE":"PAYLOAD","FILE":"3925751","EPHEMERIS_TYPE":"0","REF_FRAME":"TEME","MEAN_ELEMENT_THEORY":"SGP4","BSTAR":"0.00004847900000","PERIAPSIS":"538.966","REV_AT_EPOCH":"7673","TLE_LINE1":"1 51106U 22005C   23156.91523647  .00000484  00000-0  48479-4 0  9998","ECCENTRICITY":"0.00011450","PERIOD":"95.438","COUNTRY_CODE":"US","APOAPSIS":"540.550","CLASSIFICATION_TYPE":"U","LAUNCH_DATE":"2022-01-19","RCS_SIZE":"LARGE","CENTER_NAME":"EARTH","INCLINATION":"53.2152","MEAN_MOTION_DOT":"0.00000484","DECAY_DATE":null,"TIME_SYSTEM":"UTC","ARG_OF_PERICENTER":"93.5608","EPOCH":"2023-06-05T21:57:56.431008","MEAN_MOTION":"15.08836004","TLE_LINE2":"2 51106  53.2152 133.1943 0001145  93.5608 266.5515 15.08836004 76737","RA_OF_ASC_NODE":"133.1943","GP_ID":"233285395","ELEMENT_SET_NO":"999"},{"APOAPSIS":"540.522","PERIOD":"95.437","COUNTRY_CODE":"US","TLE_LINE1":"1 51107U 22005D   23156.38438912  .00000732  00000-0  64097-4 0  9990","ECCENTRICITY":"0.00011300","PERIAPSIS":"538.959","REV_AT_EPOCH":"7652","BSTAR":"0.00006409700000","REF_FRAME":"TEME","MEAN_ELEMENT_THEORY":"SGP4","FILE":"3925691","OBJECT_TYPE":"PAYLOAD","EPHEMERIS_TYPE":"0","NORAD_CAT_ID":"51107","OBJECT_ID":"2022-005D","MEAN_MOTION_DDOT":"0.0000000000000","SEMIMAJOR_AXIS":"6917.875","MEAN_ANOMALY":"275.2370","SITE":"AFETR","OBJECT_NAME":"STARLINK-3368","ELEMENT_SET_NO":"999","GP_ID":"233258687","RA_OF_ASC_NODE":"145.5641","TLE_LINE2":"2 51107  53.2165 145.5641 0001130  84.8751 275.2370 15.08841612 76524","ARG_OF_PERICENTER":"84.8751","EPOCH":"2023-06-05T09:13:31.219968","MEAN_MOTION":"15.08841612","DECAY_DATE":null,"TIME_SYSTEM":"UTC","MEAN_MOTION_DOT":"0.00000732","CENTER_NAME":"EARTH","INCLINATION":"53.2165","RCS_SIZE":"LARGE","CLASSIFICATION_TYPE":"U","LAUNCH_DATE":"2022-01-19"},{"NORAD_CAT_ID":"51108","OBJECT_ID":"2022-005E","SEMIMAJOR_AXIS":"6917.879","MEAN_MOTION_DDOT":"0.0000000000000","MEAN_ANOMALY":"276.9376","SITE":"AFETR","OBJECT_NAME":"STARLINK-3362","REV_AT_EPOCH":"7674","PERIAPSIS":"538.987","BSTAR":"0.00004657700000","REF_FRAME":"TEME","MEAN_ELEMENT_THEORY":"SGP4","FILE":"3925751","OBJECT_TYPE":"PAYLOAD","EPHEMERIS_TYPE":"0","TLE_LINE1":"1 51108U 22005E   23156.93363416  .00000454  00000-0  46577-4 0  9992","ECCENTRICITY":"0.00010950","APOAPSIS":"540.502","PERIOD":"95.438","COUNTRY_CODE":"US","MEAN_MOTION_DOT":"0.00000454","CENTER_NAME":"EARTH","INCLINATION":"53.2158","RCS_SIZE":"LARGE","CLASSIFICATION_TYPE":"U","LAUNCH_DATE":"2022-01-19","TLE_LINE2":"2 51108  53.2158 133.1119 0001095  83.1741 276.9376 15.08840311 76744","ARG_OF_PERICENTER":"83.1741","EPOCH":"2023-06-05T22:24:25.991424","MEAN_MOTION":"15.08840311","DECAY_DATE":null,"TIME_SYSTEM":"UTC","ELEMENT_SET_NO":"999","GP_ID":"233285897","RA_OF_ASC_NODE":"133.1119"},{"MEAN_MOTION_DDOT":"0.0000000000000","SEMIMAJOR_AXIS":"6917.881","MEAN_ANOMALY":"272.8067","SITE":"AFETR","OBJECT_NAME":"STARLINK-3358","NORAD_CAT_ID":"51109","OBJECT_ID":"2022-005F","REF_FRAME":"TEME","MEAN_ELEMENT_THEORY":"SGP4","FILE":"3925331","OBJECT_TYPE":"PAYLOAD","EPHEMERIS_TYPE":"0","PERIAPSIS":"538.912","REV_AT_EPOCH":"7774","BSTAR":"0.00004477700000","ECCENTRICITY":"0.00012050","TLE_LINE1":"1 51109U 22005F   23156.22802954  .00000425  00000-0  44777-4 0  9998","PERIOD":"95.438","COUNTRY_CODE":"US","APOAPSIS":"540.580","RCS_SIZE":"LARGE","CLASSIFICATION_TYPE":"U","LAUNCH_DATE":"2022-01-19","MEAN_MOTION_DOT":"0.00000425","CENTER_NAME":"EARTH","INCLINATION":"53.2164","ARG_OF_PERICENTER":"87.3063","MEAN_MOTION":"15.08839793","EPOCH":"2023-06-05T05:28:21.752256","DECAY_DATE":null,"TIME_SYSTEM":"UTC","TLE_LINE2":"2 51109  53.2164 136.2819 0001205  87.3063 272.8067 15.08839793 77744","GP_ID":"233226203","RA_OF_ASC_NODE":"136.2819","ELEMENT_SET_NO":"999"},{"ECCENTRICITY":"0.00012340","TLE_LINE1":"1 51110U 22005G   23156.92723544  .00000385  00000-0  42247-4 0  9999","APOAPSIS":"540.606","PERIOD":"95.438","COUNTRY_CODE":"US","NORAD_CAT_ID":"51110","OBJECT_ID":"2022-005G","MEAN_MOTION_DDOT":"0.0000000000000","SEMIMAJOR_AXIS":"6917.887","MEAN_ANOMALY":"273.7152","SITE":"AFETR","OBJECT_NAME":"STARLINK-3344","PERIAPSIS":"538.899","REV_AT_EPOCH":"7674","BSTAR":"0.00004224700000","REF_FRAME":"TEME","MEAN_ELEMENT_THEORY":"SGP4","OBJECT_TYPE":"PAYLOAD","FILE":"3925751","EPHEMERIS_TYPE":"0","TLE_LINE2":"2 51110  53.2159 133.1686 0001234  86.3981 273.7152 15.08837762 76746","ARG_OF_PERICENTER":"86.3981","EPOCH":"2023-06-05T22:15:13.142016","MEAN_MOTION":"15.08837762","DECAY_DATE":null,"TIME_SYSTEM":"UTC","ELEMENT_SET_NO":"999","GP_ID":"233284896","RA_OF_ASC_NODE":"133.1686","MEAN_MOTION_DOT":"0.00000385","INCLINATION":"53.2159","CENTER_NAME":"EARTH","RCS_SIZE":"LARGE","CLASSIFICATION_TYPE":"U","LAUNCH_DATE":"2022-01-19"}];
